CCSDS_OMM_VERS = 2.0
CREATION_DATE  = 
ORIGINATOR     = 

OBJECT_NAME    = SL-4 R/B
OBJECT_ID      = 2014-021B
CENTER_NAME    = EARTH
REF_FRAME      = TEME
TIME_SYSTEM    = UTC
MEAN_ELEMENT_THEORY = SGP/SGP4

EPOCH          = 2025-12-09T14:58:51.705120
MEAN_MOTION    = 15.36549404
ECCENTRICITY   = .01020542
INCLINATION    = 51.6070
RA_OF_ASC_NODE = 55.7340
ARG_OF_PERICENTER = 134.9647
MEAN_ANOMALY   = 225.9668

EPHEMERIS_TYPE = 0
CLASSIFICATION_TYPE = U
NORAD_CAT_ID   = 39679
ELEMENT_SET_NO = 999
REV_AT_EPOCH   = 64241
BSTAR          = .42110199E-3
MEAN_MOTION_DOT = .17782E-3
MEAN_MOTION_DDOT = 0

CCSDS_OMM_VERS = 2.0
CREATION_DATE  = 
ORIGINATOR     = 

OBJECT_NAME    = ALOS-2
OBJECT_ID      = 2014-029A
CENTER_NAME    = EARTH
REF_FRAME      = TEME
TIME_SYSTEM    = UTC
MEAN_ELEMENT_THEORY = SGP/SGP4

EPOCH          = 2025-12-09T13:32:33.770400
MEAN_MOTION    = 14.79464767
ECCENTRICITY   = .0001523
INCLINATION    = 97.9228
RA_OF_ASC_NODE = 78.4559
ARG_OF_PERICENTER = 99.7779
MEAN_ANOMALY   = 260.3605

EPHEMERIS_TYPE = 0
CLASSIFICATION_TYPE = U
NORAD_CAT_ID   = 39766
ELEMENT_SET_NO = 999
REV_AT_EPOCH   = 62354
BSTAR          = .77734142E-3
MEAN_MOTION_DOT = .5758E-4
MEAN_MOTION_DDOT = 0

CCSDS_OMM_VERS = 2.0
CREATION_DATE  = 
ORIGINATOR     = 

OBJECT_NAME    = YAOGAN-29
OBJECT_ID      = 2015-069A
CENTER_NAME    = EARTH
REF_FRAME      = TEME
TIME_SYSTEM    = UTC
MEAN_ELEMENT_THEORY = SGP/SGP4

EPOCH          = 2025-12-09T15:33:22.516128
MEAN_MOTION    = 14.82878684
ECCENTRICITY   = .00004239
INCLINATION    = 98.0217
RA_OF_ASC_NODE = 6.8095
ARG_OF_PERICENTER = 353.9016
MEAN_ANOMALY   = 6.2191

EPHEMERIS_TYPE = 0
CLASSIFICATION_TYPE = U
NORAD_CAT_ID   = 41038
ELEMENT_SET_NO = 999
REV_AT_EPOCH   = 54253
BSTAR          = .12782288E-3
MEAN_MOTION_DOT = .981E-5
MEAN_MOTION_DDOT = 0

CCSDS_OMM_VERS = 2.0
CREATION_DATE  = 
ORIGINATOR     = 

OBJECT_NAME    = ASTRO-H (HITOMI)
OBJECT_ID      = 2016-012A
CENTER_NAME    = EARTH
REF_FRAME      = TEME
TIME_SYSTEM    = UTC
MEAN_ELEMENT_THEORY = SGP/SGP4

EPOCH          = 2025-12-09T01:16:12.137664
MEAN_MOTION    = 15.09316337
ECCENTRICITY   = .00095014
INCLINATION    = 30.9983
RA_OF_ASC_NODE = 221.1410
ARG_OF_PERICENTER = 141.6857
MEAN_ANOMALY   = 218.4457

EPHEMERIS_TYPE = 0
CLASSIFICATION_TYPE = U
NORAD_CAT_ID   = 41337
ELEMENT_SET_NO = 999
REV_AT_EPOCH   = 53852
BSTAR          = .25469379E-3
MEAN_MOTION_DOT = .4259E-4
MEAN_MOTION_DDOT = 0

CCSDS_OMM_VERS = 2.0
CREATION_DATE  = 
ORIGINATOR     = 

OBJECT_NAME    = HXMT (HUIYAN)
OBJECT_ID      = 2017-034A
CENTER_NAME    = EARTH
REF_FRAME      = TEME
TIME_SYSTEM    = UTC
MEAN_ELEMENT_THEORY = SGP/SGP4

EPOCH          = 2025-12-09T15:05:22.566624
MEAN_MOTION    = 15.16204704
ECCENTRICITY   = .00319026
INCLINATION    = 43.0126
RA_OF_ASC_NODE = 156.8914
ARG_OF_PERICENTER = 23.3271
MEAN_ANOMALY   = 336.9017

EPHEMERIS_TYPE = 0
CLASSIFICATION_TYPE = U
NORAD_CAT_ID   = 42758
ELEMENT_SET_NO = 999
REV_AT_EPOCH   = 46886
BSTAR          = .29156509E-3
MEAN_MOTION_DOT = .557E-4
MEAN_MOTION_DDOT = 0

CCSDS_OMM_VERS = 2.0
CREATION_DATE  = 
ORIGINATOR     = 

OBJECT_NAME    = CZ-2C R/B
OBJECT_ID      = 2018-054D
CENTER_NAME    = EARTH
REF_FRAME      = TEME
TIME_SYSTEM    = UTC
MEAN_ELEMENT_THEORY = SGP/SGP4

EPOCH          = 2025-12-08T22:16:39.395136
MEAN_MOTION    = 15.73090809
ECCENTRICITY   = .0015953
INCLINATION    = 35.1323
RA_OF_ASC_NODE = 206.7289
ARG_OF_PERICENTER = 103.6735
MEAN_ANOMALY   = 256.5775

EPHEMERIS_TYPE = 0
CLASSIFICATION_TYPE = U
NORAD_CAT_ID   = 43521
ELEMENT_SET_NO = 999
REV_AT_EPOCH   = 41445
BSTAR          = .77893E-3
MEAN_MOTION_DOT = .11301E-2
MEAN_MOTION_DDOT = 0

CCSDS_OMM_VERS = 2.0
CREATION_DATE  = 
ORIGINATOR     = 

OBJECT_NAME    = SAOCOM 1A
OBJECT_ID      = 2018-076A
CENTER_NAME    = EARTH
REF_FRAME      = TEME
TIME_SYSTEM    = UTC
MEAN_ELEMENT_THEORY = SGP/SGP4

EPOCH          = 2025-12-09T15:12:51.177024
MEAN_MOTION    = 14.82153131
ECCENTRICITY   = .00015377
INCLINATION    = 97.8843
RA_OF_ASC_NODE = 168.1013
ARG_OF_PERICENTER = 83.7302
MEAN_ANOMALY   = 276.4086

EPHEMERIS_TYPE = 0
CLASSIFICATION_TYPE = U
NORAD_CAT_ID   = 43641
ELEMENT_SET_NO = 999
REV_AT_EPOCH   = 38802
BSTAR          = .11303098E-3
MEAN_MOTION_DOT = .848E-5
MEAN_MOTION_DDOT = 0

CCSDS_OMM_VERS = 2.0
CREATION_DATE  = 
ORIGINATOR     = 

OBJECT_NAME    = H-2A R/B
OBJECT_ID      = 2018-084L
CENTER_NAME    = EARTH
REF_FRAME      = TEME
TIME_SYSTEM    = UTC
MEAN_ELEMENT_THEORY = SGP/SGP4

EPOCH          = 2025-12-09T12:04:24.143808
MEAN_MOTION    = 15.37188706
ECCENTRICITY   = .00276501
INCLINATION    = 98.8777
RA_OF_ASC_NODE = 176.9117
ARG_OF_PERICENTER = 337.7048
MEAN_ANOMALY   = 22.2988

EPHEMERIS_TYPE = 0
CLASSIFICATION_TYPE = U
NORAD_CAT_ID   = 43682
ELEMENT_SET_NO = 999
REV_AT_EPOCH   = 39190
BSTAR          = .72196959E-3
MEAN_MOTION_DOT = .26585E-3
MEAN_MOTION_DDOT = 0

CCSDS_OMM_VERS = 2.0
CREATION_DATE  = 
ORIGINATOR     = 

OBJECT_NAME    = SAOCOM 1B
OBJECT_ID      = 2020-059A
CENTER_NAME    = EARTH
REF_FRAME      = TEME
TIME_SYSTEM    = UTC
MEAN_ELEMENT_THEORY = SGP/SGP4

EPOCH          = 2025-12-09T14:20:38.751936
MEAN_MOTION    = 14.82153571
ECCENTRICITY   = .00012532
INCLINATION    = 97.8837
RA_OF_ASC_NODE = 167.1660
ARG_OF_PERICENTER = 84.6974
MEAN_ANOMALY   = 275.4382

EPHEMERIS_TYPE = 0
CLASSIFICATION_TYPE = U
NORAD_CAT_ID   = 46265
ELEMENT_SET_NO = 999
REV_AT_EPOCH   = 28540
BSTAR          = .84817079E-4
MEAN_MOTION_DOT = .623E-5
MEAN_MOTION_DDOT = 0

CCSDS_OMM_VERS = 2.0
CREATION_DATE  = 
ORIGINATOR     = 

OBJECT_NAME    = CSS (TIANHE)
OBJECT_ID      = 2021-035A
CENTER_NAME    = EARTH
REF_FRAME      = TEME
TIME_SYSTEM    = UTC
MEAN_ELEMENT_THEORY = SGP/SGP4

EPOCH          = 2025-12-09T13:49:14.456064
MEAN_MOTION    = 15.58965688
ECCENTRICITY   = .00089597
INCLINATION    = 41.4682
RA_OF_ASC_NODE = 35.9133
ARG_OF_PERICENTER = 5.1145
MEAN_ANOMALY   = 354.9784

EPHEMERIS_TYPE = 0
CLASSIFICATION_TYPE = U
NORAD_CAT_ID   = 48274
ELEMENT_SET_NO = 999
REV_AT_EPOCH   = 26353
BSTAR          = .41052725E-3
MEAN_MOTION_DOT = .32682E-3
MEAN_MOTION_DDOT = 0

CCSDS_OMM_VERS = 2.0
CREATION_DATE  = 
ORIGINATOR     = 

OBJECT_NAME    = COSMOS 2550
OBJECT_ID      = 2021-056A
CENTER_NAME    = EARTH
REF_FRAME      = TEME
TIME_SYSTEM    = UTC
MEAN_ELEMENT_THEORY = SGP/SGP4

EPOCH          = 2025-12-09T08:02:46.062240
MEAN_MOTION    = 15.33838976
ECCENTRICITY   = .0008326
INCLINATION    = 67.1455
RA_OF_ASC_NODE = 314.2314
ARG_OF_PERICENTER = 269.7288
MEAN_ANOMALY   = 90.2912

EPHEMERIS_TYPE = 0
CLASSIFICATION_TYPE = U
NORAD_CAT_ID   = 48865
ELEMENT_SET_NO = 999
REV_AT_EPOCH   = 24960
BSTAR          = .63535E-5
MEAN_MOTION_DOT = .17E-6
MEAN_MOTION_DDOT = 0

CCSDS_OMM_VERS = 2.0
CREATION_DATE  = 
ORIGINATOR     = 

OBJECT_NAME    = CZ-2C R/B
OBJECT_ID      = 2022-058K
CENTER_NAME    = EARTH
REF_FRAME      = TEME
TIME_SYSTEM    = UTC
MEAN_ELEMENT_THEORY = SGP/SGP4

EPOCH          = 2025-12-09T12:22:55.049088
MEAN_MOTION    = 15.48276110
ECCENTRICITY   = .00456976
INCLINATION    = 50.1909
RA_OF_ASC_NODE = 59.9873
ARG_OF_PERICENTER = 185.0920
MEAN_ANOMALY   = 174.9589

EPHEMERIS_TYPE = 0
CLASSIFICATION_TYPE = U
NORAD_CAT_ID   = 52794
ELEMENT_SET_NO = 999
REV_AT_EPOCH   = 19613
BSTAR          = .59513286E-3
MEAN_MOTION_DOT = .33033E-3
MEAN_MOTION_DDOT = 0

