SL-4 R/B                
1 39679U 14021B   25343.62420955  .00017782  00000+0  42110-3 0  9997
2 39679  51.6070  55.7340 0102054 134.9647 225.9668 15.36549404642411
ALOS-2                  
1 39766U 14029A   25343.56427975  .00005758  00000+0  77734-3 0  9994
2 39766  97.9228  78.4559 0001523  99.7779 260.3605 14.79464767623544
YAOGAN-29               
1 41038U 15069A   25343.64817727  .00000981  00000+0  12782-3 0  9996
2 41038  98.0217   6.8095 0000423 353.9016   6.2191 14.82878684542533
ASTRO-H (HITOMI)        
1 41337U 16012A   25343.05291826  .00004259  00000+0  25469-3 0  9996
2 41337  30.9983 221.1410 0009501 141.6857 218.4457 15.09316337538522
HXMT (HUIYAN)           
1 42758U 17034A   25343.62873341  .00005570  00000+0  29157-3 0  9995
2 42758  43.0126 156.8914 0031902  23.3271 336.9017 15.16204704468862
CZ-2C R/B               
1 43521U 18054D   25342.92823374  .00113010  00000+0  77893-3 0  9999
2 43521  35.1323 206.7289 0015953 103.6735 256.5775 15.73090809414453
SAOCOM 1A               
1 43641U 18076A   25343.63392566  .00000848  00000+0  11303-3 0  9997
2 43641  97.8843 168.1013 0001537  83.7302 276.4086 14.82153131388021
H-2A R/B                
1 43682U 18084L   25343.50305722  .00026585  00000+0  72197-3 0  9999
2 43682  98.8777 176.9117 0027650 337.7048  22.2988 15.37188706391904
SAOCOM 1B               
1 46265U 20059A   25343.59767074  .00000623  00000+0  84817-4 0  9993
2 46265  97.8837 167.1660 0001253  84.6974 275.4382 14.82153571285400
CSS (TIANHE)            
1 48274U 21035A   25343.57586176  .00032682  00000+0  41053-3 0  9994
2 48274  41.4682  35.9133 0008959   5.1145 354.9784 15.58965688263533
COSMOS 2550             
1 48865U 21056A   25343.33525535  .00000017  00000+0  63535-5 0  9997
2 48865  67.1455 314.2314 0008326 269.7288  90.2912 15.33838976249607
CZ-2C R/B               
1 52794U 22058K   25343.51591492  .00033033  00000+0  59513-3 0  9994
2 52794  50.1909  59.9873 0045697 185.0920 174.9589 15.48276110196138
